STARLINK-35488          
1 66254U 25245W   26068.87417470  .00022464  00000+0  76839-3 0  9994
2 66254  53.1565 283.1162 0001009  83.7537 276.3579 15.30195842 21286
KUIPER-00208            
1 67775U 26030M   26068.67231509  .00043852  00000+0  13883-2 0  9994
2 67775  51.8846 219.6993 0015525  57.3146 302.9333 15.32208734  5080
